CCSDS_OMM_VERS = 2.0
CREATION_DATE  = 
ORIGINATOR     = 

OBJECT_NAME    = STARLINK-36993
OBJECT_ID      = 2026-039J
CENTER_NAME    = EARTH
REF_FRAME      = TEME
TIME_SYSTEM    = UTC
MEAN_ELEMENT_THEORY = SGP/SGP4

EPOCH          = 2026-03-07T04:00:03.000096
MEAN_MOTION    = 15.92852923
ECCENTRICITY   = .0001803
INCLINATION    = 42.9973
RA_OF_ASC_NODE = 70.4802
ARG_OF_PERICENTER = 271.0991
MEAN_ANOMALY   = 115.7650

EPHEMERIS_TYPE = 0
CLASSIFICATION_TYPE = U
NORAD_CAT_ID   = 67994
ELEMENT_SET_NO = 999
REV_AT_EPOCH   = 247
BSTAR          = -.46573E-2
MEAN_MOTION_DOT = -.1667606E-1
MEAN_MOTION_DDOT = .77751E-3

CCSDS_OMM_VERS = 2.0
CREATION_DATE  = 
ORIGINATOR     = 

OBJECT_NAME    = STARLINK-36968
OBJECT_ID      = 2026-039K
CENTER_NAME    = EARTH
REF_FRAME      = TEME
TIME_SYSTEM    = UTC
MEAN_ELEMENT_THEORY = SGP/SGP4

EPOCH          = 2026-03-07T04:00:03.000096
MEAN_MOTION    = 15.93094531
ECCENTRICITY   = .0001831
INCLINATION    = 42.9973
RA_OF_ASC_NODE = 70.4640
ARG_OF_PERICENTER = 270.5021
MEAN_ANOMALY   = 122.6859

EPHEMERIS_TYPE = 0
CLASSIFICATION_TYPE = U
NORAD_CAT_ID   = 67995
ELEMENT_SET_NO = 999
REV_AT_EPOCH   = 247
BSTAR          = -.46554E-2
MEAN_MOTION_DOT = -.1688015E-1
MEAN_MOTION_DDOT = .79706E-3

CCSDS_OMM_VERS = 2.0
CREATION_DATE  = 
ORIGINATOR     = 

OBJECT_NAME    = STARLINK-36979
OBJECT_ID      = 2026-039L
CENTER_NAME    = EARTH
REF_FRAME      = TEME
TIME_SYSTEM    = UTC
MEAN_ELEMENT_THEORY = SGP/SGP4

EPOCH          = 2026-03-07T04:00:03.000096
MEAN_MOTION    = 15.92947181
ECCENTRICITY   = .0001772
INCLINATION    = 42.9970
RA_OF_ASC_NODE = 70.4700
ARG_OF_PERICENTER = 269.8680
MEAN_ANOMALY   = 120.8731

EPHEMERIS_TYPE = 0
CLASSIFICATION_TYPE = U
NORAD_CAT_ID   = 67996
ELEMENT_SET_NO = 999
REV_AT_EPOCH   = 247
BSTAR          = -.4685E-2
MEAN_MOTION_DOT = -.1685646E-1
MEAN_MOTION_DDOT = .79384E-3

CCSDS_OMM_VERS = 2.0
CREATION_DATE  = 
ORIGINATOR     = 

OBJECT_NAME    = STARLINK-36994
OBJECT_ID      = 2026-039M
CENTER_NAME    = EARTH
REF_FRAME      = TEME
TIME_SYSTEM    = UTC
MEAN_ELEMENT_THEORY = SGP/SGP4

EPOCH          = 2026-03-07T04:00:03.000096
MEAN_MOTION    = 15.93376169
ECCENTRICITY   = .0001538
INCLINATION    = 42.9972
RA_OF_ASC_NODE = 70.4504
ARG_OF_PERICENTER = 264.5823
MEAN_ANOMALY   = 133.8971

EPHEMERIS_TYPE = 0
CLASSIFICATION_TYPE = U
NORAD_CAT_ID   = 67997
ELEMENT_SET_NO = 999
REV_AT_EPOCH   = 247
BSTAR          = -.4605E-2
MEAN_MOTION_DOT = -.1694597E-1
MEAN_MOTION_DDOT = .80505E-3

CCSDS_OMM_VERS = 2.0
CREATION_DATE  = 
ORIGINATOR     = 

OBJECT_NAME    = STARLINK-36988
OBJECT_ID      = 2026-039N
CENTER_NAME    = EARTH
REF_FRAME      = TEME
TIME_SYSTEM    = UTC
MEAN_ELEMENT_THEORY = SGP/SGP4

EPOCH          = 2026-03-07T04:00:03.000096
MEAN_MOTION    = 15.93232567
ECCENTRICITY   = .0001749
INCLINATION    = 42.9973
RA_OF_ASC_NODE = 70.4567
ARG_OF_PERICENTER = 269.2040
MEAN_ANOMALY   = 126.7993

EPHEMERIS_TYPE = 0
CLASSIFICATION_TYPE = U
NORAD_CAT_ID   = 67998
ELEMENT_SET_NO = 999
REV_AT_EPOCH   = 247
BSTAR          = -.46363E-2
MEAN_MOTION_DOT = -.1693295E-1
MEAN_MOTION_DDOT = .80276E-3

CCSDS_OMM_VERS = 2.0
CREATION_DATE  = 
ORIGINATOR     = 

OBJECT_NAME    = STARLINK-36926
OBJECT_ID      = 2026-039P
CENTER_NAME    = EARTH
REF_FRAME      = TEME
TIME_SYSTEM    = UTC
MEAN_ELEMENT_THEORY = SGP/SGP4

EPOCH          = 2026-03-07T04:00:03.000096
MEAN_MOTION    = 15.93518864
ECCENTRICITY   = .0001659
INCLINATION    = 42.9972
RA_OF_ASC_NODE = 70.4443
ARG_OF_PERICENTER = 269.8956
MEAN_ANOMALY   = 131.1518

EPHEMERIS_TYPE = 0
CLASSIFICATION_TYPE = U
NORAD_CAT_ID   = 67999
ELEMENT_SET_NO = 999
REV_AT_EPOCH   = 247
BSTAR          = -.45683E-2
MEAN_MOTION_DOT = -.169387E-1
MEAN_MOTION_DDOT = .80555E-3

CCSDS_OMM_VERS = 2.0
CREATION_DATE  = 
ORIGINATOR     = 

OBJECT_NAME    = STARLINK-36931
OBJECT_ID      = 2026-039Q
CENTER_NAME    = EARTH
REF_FRAME      = TEME
TIME_SYSTEM    = UTC
MEAN_ELEMENT_THEORY = SGP/SGP4

EPOCH          = 2026-03-07T04:00:03.000096
MEAN_MOTION    = 15.93661458
ECCENTRICITY   = .0001698
INCLINATION    = 42.9973
RA_OF_ASC_NODE = 70.4390
ARG_OF_PERICENTER = 268.0149
MEAN_ANOMALY   = 135.1329

EPHEMERIS_TYPE = 0
CLASSIFICATION_TYPE = U
NORAD_CAT_ID   = 68000
ELEMENT_SET_NO = 999
REV_AT_EPOCH   = 247
BSTAR          = -.45089E-2
MEAN_MOTION_DOT = -.1684657E-1
MEAN_MOTION_DDOT = .79861E-3

CCSDS_OMM_VERS = 2.0
CREATION_DATE  = 
ORIGINATOR     = 

OBJECT_NAME    = STARLINK-36903
OBJECT_ID      = 2026-039R
CENTER_NAME    = EARTH
REF_FRAME      = TEME
TIME_SYSTEM    = UTC
MEAN_ELEMENT_THEORY = SGP/SGP4

EPOCH          = 2026-03-07T04:00:03.000096
MEAN_MOTION    = 15.93794294
ECCENTRICITY   = .0001731
INCLINATION    = 42.9975
RA_OF_ASC_NODE = 70.4323
ARG_OF_PERICENTER = 270.7520
MEAN_ANOMALY   = 135.0223

EPHEMERIS_TYPE = 0
CLASSIFICATION_TYPE = U
NORAD_CAT_ID   = 68001
ELEMENT_SET_NO = 999
REV_AT_EPOCH   = 247
BSTAR          = -.44592E-2
MEAN_MOTION_DOT = -.1677967E-1
MEAN_MOTION_DDOT = .79382E-3

CCSDS_OMM_VERS = 2.0
CREATION_DATE  = 
ORIGINATOR     = 

OBJECT_NAME    = STARLINK-36898
OBJECT_ID      = 2026-039S
CENTER_NAME    = EARTH
REF_FRAME      = TEME
TIME_SYSTEM    = UTC
MEAN_ELEMENT_THEORY = SGP/SGP4

EPOCH          = 2026-03-07T04:00:03.000096
MEAN_MOTION    = 15.94068440
ECCENTRICITY   = .0001751
INCLINATION    = 42.9974
RA_OF_ASC_NODE = 70.4194
ARG_OF_PERICENTER = 273.1044
MEAN_ANOMALY   = 137.6312

EPHEMERIS_TYPE = 0
CLASSIFICATION_TYPE = U
NORAD_CAT_ID   = 68002
ELEMENT_SET_NO = 999
REV_AT_EPOCH   = 247
BSTAR          = -.4378E-2
MEAN_MOTION_DOT = -.1671736E-1
MEAN_MOTION_DDOT = .79055E-3

CCSDS_OMM_VERS = 2.0
CREATION_DATE  = 
ORIGINATOR     = 

OBJECT_NAME    = STARLINK-36862
OBJECT_ID      = 2026-039T
CENTER_NAME    = EARTH
REF_FRAME      = TEME
TIME_SYSTEM    = UTC
MEAN_ELEMENT_THEORY = SGP/SGP4

EPOCH          = 2026-03-07T04:00:03.000096
MEAN_MOTION    = 15.94343560
ECCENTRICITY   = .000174
INCLINATION    = 42.9974
RA_OF_ASC_NODE = 70.4077
ARG_OF_PERICENTER = 272.3551
MEAN_ANOMALY   = 143.0236

EPHEMERIS_TYPE = 0
CLASSIFICATION_TYPE = U
NORAD_CAT_ID   = 68003
ELEMENT_SET_NO = 999
REV_AT_EPOCH   = 247
BSTAR          = -.43014E-2
MEAN_MOTION_DOT = -.1666833E-1
MEAN_MOTION_DDOT = .78845E-3

CCSDS_OMM_VERS = 2.0
CREATION_DATE  = 
ORIGINATOR     = 

OBJECT_NAME    = STARLINK-36888
OBJECT_ID      = 2026-039U
CENTER_NAME    = EARTH
REF_FRAME      = TEME
TIME_SYSTEM    = UTC
MEAN_ELEMENT_THEORY = SGP/SGP4

EPOCH          = 2026-03-07T04:00:03.000096
MEAN_MOTION    = 15.93930182
ECCENTRICITY   = .0001703
INCLINATION    = 42.9975
RA_OF_ASC_NODE = 70.4263
ARG_OF_PERICENTER = 273.7298
MEAN_ANOMALY   = 134.4530

EPHEMERIS_TYPE = 0
CLASSIFICATION_TYPE = U
NORAD_CAT_ID   = 68004
ELEMENT_SET_NO = 999
REV_AT_EPOCH   = 247
BSTAR          = -.44125E-2
MEAN_MOTION_DOT = -.1672489E-1
MEAN_MOTION_DDOT = .79011E-3

CCSDS_OMM_VERS = 2.0
CREATION_DATE  = 
ORIGINATOR     = 

OBJECT_NAME    = STARLINK-36910
OBJECT_ID      = 2026-039V
CENTER_NAME    = EARTH
REF_FRAME      = TEME
TIME_SYSTEM    = UTC
MEAN_ELEMENT_THEORY = SGP/SGP4

EPOCH          = 2026-03-07T04:00:03.000096
MEAN_MOTION    = 15.94208008
ECCENTRICITY   = .0001737
INCLINATION    = 42.9973
RA_OF_ASC_NODE = 70.4133
ARG_OF_PERICENTER = 274.5128
MEAN_ANOMALY   = 138.6738

EPHEMERIS_TYPE = 0
CLASSIFICATION_TYPE = U
NORAD_CAT_ID   = 68005
ELEMENT_SET_NO = 999
REV_AT_EPOCH   = 247
BSTAR          = -.436E-2
MEAN_MOTION_DOT = -.167723E-1
MEAN_MOTION_DDOT = .79647E-3

