STARLINK-36993          
1 67994U 26039J   26066.16670139 -.01667606  77751-3 -46573-2 0  9999
2 67994  42.9973  70.4802 0001803 271.0991 115.7650 15.92852923  2477
STARLINK-36968          
1 67995U 26039K   26066.16670139 -.01688015  79706-3 -46554-2 0  9998
2 67995  42.9973  70.4640 0001831 270.5021 122.6859 15.93094531  2479
STARLINK-36979          
1 67996U 26039L   26066.16670139 -.01685646  79384-3 -46850-2 0  9997
2 67996  42.9970  70.4700 0001772 269.8680 120.8731 15.92947181  2476
STARLINK-36994          
1 67997U 26039M   26066.16670139 -.01694597  80505-3 -46050-2 0  9992
2 67997  42.9972  70.4504 0001538 264.5823 133.8971 15.93376169  2475
STARLINK-36988          
1 67998U 26039N   26066.16670139 -.01693295  80276-3 -46363-2 0  9999
2 67998  42.9973  70.4567 0001749 269.2040 126.7993 15.93232567  2471
STARLINK-36926          
1 67999U 26039P   26066.16670139 -.01693870  80555-3 -45683-2 0  9993
2 67999  42.9972  70.4443 0001659 269.8956 131.1518 15.93518864  2476
STARLINK-36931          
1 68000U 26039Q   26066.16670139 -.01684657  79861-3 -45089-2 0  9998
2 68000  42.9973  70.4390 0001698 268.0149 135.1329 15.93661458  2472
STARLINK-36903          
1 68001U 26039R   26066.16670139 -.01677967  79382-3 -44592-2 0  9991
2 68001  42.9975  70.4323 0001731 270.7520 135.0223 15.93794294  2479
STARLINK-36898          
1 68002U 26039S   26066.16670139 -.01671736  79055-3 -43780-2 0  9995
2 68002  42.9974  70.4194 0001751 273.1044 137.6312 15.94068440  2470
STARLINK-36862          
1 68003U 26039T   26066.16670139 -.01666833  78845-3 -43014-2 0  9994
2 68003  42.9974  70.4077 0001740 272.3551 143.0236 15.94343560  2478
STARLINK-36888          
1 68004U 26039U   26066.16670139 -.01672489  79011-3 -44125-2 0  9999
2 68004  42.9975  70.4263 0001703 273.7298 134.4530 15.93930182  2471
STARLINK-36910          
1 68005U 26039V   26066.16670139 -.01677230  79647-3 -43600-2 0  9991
2 68005  42.9973  70.4133 0001737 274.5128 138.6738 15.94208008  2476
